CCSDS_OMM_VERS = 2.0
CREATION_DATE  = 
ORIGINATOR     = 

OBJECT_NAME    = SL-16 R/B
OBJECT_ID      = 1998-045B
CENTER_NAME    = EARTH
REF_FRAME      = TEME
TIME_SYSTEM    = UTC
MEAN_ELEMENT_THEORY = SGP/SGP4

EPOCH          = 2026-03-17T23:29:02.843232
MEAN_MOTION    = 14.16194522
ECCENTRICITY   = .0007301
INCLINATION    = 71.0120
RA_OF_ASC_NODE = 164.1442
ARG_OF_PERICENTER = 355.0611
MEAN_ANOMALY   = 5.0439

EPHEMERIS_TYPE = 0
CLASSIFICATION_TYPE = U
NORAD_CAT_ID   = 25407
ELEMENT_SET_NO = 999
REV_AT_EPOCH   = 42827
BSTAR          = .11139165E-3
MEAN_MOTION_DOT = .173E-5
MEAN_MOTION_DDOT = 0

CCSDS_OMM_VERS = 2.0
CREATION_DATE  = 
ORIGINATOR     = 

OBJECT_NAME    = ISS (ZARYA)
OBJECT_ID      = 1998-067A
CENTER_NAME    = EARTH
REF_FRAME      = TEME
TIME_SYSTEM    = UTC
MEAN_ELEMENT_THEORY = SGP/SGP4

EPOCH          = 2026-03-18T03:52:30.016128
MEAN_MOTION    = 15.48351952
ECCENTRICITY   = .00062422
INCLINATION    = 51.6338
RA_OF_ASC_NODE = 30.4771
ARG_OF_PERICENTER = 203.4545
MEAN_ANOMALY   = 156.6159

EPHEMERIS_TYPE = 0
CLASSIFICATION_TYPE = U
NORAD_CAT_ID   = 25544
ELEMENT_SET_NO = 999
REV_AT_EPOCH   = 55764
BSTAR          = .14196061E-3
MEAN_MOTION_DOT = .7208E-4
MEAN_MOTION_DDOT = 0

CCSDS_OMM_VERS = 2.0
CREATION_DATE  = 
ORIGINATOR     = 

OBJECT_NAME    = CZ-4B R/B
OBJECT_ID      = 1999-025C
CENTER_NAME    = EARTH
REF_FRAME      = TEME
TIME_SYSTEM    = UTC
MEAN_ELEMENT_THEORY = SGP/SGP4

EPOCH          = 2026-03-18T03:09:17.693856
MEAN_MOTION    = 14.18267072
ECCENTRICITY   = .00363283
INCLINATION    = 98.6608
RA_OF_ASC_NODE = 121.2124
ARG_OF_PERICENTER = 321.9976
MEAN_ANOMALY   = 100.1841

EPHEMERIS_TYPE = 0
CLASSIFICATION_TYPE = U
NORAD_CAT_ID   = 25732
ELEMENT_SET_NO = 999
REV_AT_EPOCH   = 38936
BSTAR          = .42713326E-4
MEAN_MOTION_DOT = .45E-6
MEAN_MOTION_DDOT = 0

CCSDS_OMM_VERS = 2.0
CREATION_DATE  = 
ORIGINATOR     = 

OBJECT_NAME    = OKEAN-O
OBJECT_ID      = 1999-039A
CENTER_NAME    = EARTH
REF_FRAME      = TEME
TIME_SYSTEM    = UTC
MEAN_ELEMENT_THEORY = SGP/SGP4

EPOCH          = 2026-03-18T04:02:55.451040
MEAN_MOTION    = 14.80349343
ECCENTRICITY   = .00010174
INCLINATION    = 97.9423
RA_OF_ASC_NODE = 136.9733
ARG_OF_PERICENTER = 74.8261
MEAN_ANOMALY   = 285.3063

EPHEMERIS_TYPE = 0
CLASSIFICATION_TYPE = U
NORAD_CAT_ID   = 25860
ELEMENT_SET_NO = 999
REV_AT_EPOCH   = 43564
BSTAR          = .91827169E-4
MEAN_MOTION_DOT = .648E-5
MEAN_MOTION_DDOT = 0

CCSDS_OMM_VERS = 2.0
CREATION_DATE  = 
ORIGINATOR     = 

OBJECT_NAME    = SL-16 R/B
OBJECT_ID      = 1999-039B
CENTER_NAME    = EARTH
REF_FRAME      = TEME
TIME_SYSTEM    = UTC
MEAN_ELEMENT_THEORY = SGP/SGP4

EPOCH          = 2026-03-18T03:22:26.456736
MEAN_MOTION    = 14.81743323
ECCENTRICITY   = .00138111
INCLINATION    = 97.9946
RA_OF_ASC_NODE = 136.2240
ARG_OF_PERICENTER = 226.3634
MEAN_ANOMALY   = 133.6434

EPHEMERIS_TYPE = 0
CLASSIFICATION_TYPE = U
NORAD_CAT_ID   = 25861
ELEMENT_SET_NO = 999
REV_AT_EPOCH   = 43811
BSTAR          = .76991032E-4
MEAN_MOTION_DOT = .554E-5
MEAN_MOTION_DDOT = 0

CCSDS_OMM_VERS = 2.0
CREATION_DATE  = 
ORIGINATOR     = 

OBJECT_NAME    = DELTA 2 R/B
OBJECT_ID      = 1999-041E
CENTER_NAME    = EARTH
REF_FRAME      = TEME
TIME_SYSTEM    = UTC
MEAN_ELEMENT_THEORY = SGP/SGP4

EPOCH          = 2026-03-17T12:17:21.114816
MEAN_MOTION    = 14.11860091
ECCENTRICITY   = .05025583
INCLINATION    = 51.7612
RA_OF_ASC_NODE = 270.0340
ARG_OF_PERICENTER = 11.5057
MEAN_ANOMALY   = 349.6876

EPHEMERIS_TYPE = 0
CLASSIFICATION_TYPE = U
NORAD_CAT_ID   = 25876
ELEMENT_SET_NO = 999
REV_AT_EPOCH   = 36413
BSTAR          = .16765064E-3
MEAN_MOTION_DOT = .799E-5
MEAN_MOTION_DDOT = 0

CCSDS_OMM_VERS = 2.0
CREATION_DATE  = 
ORIGINATOR     = 

OBJECT_NAME    = HELIOS 1B
OBJECT_ID      = 1999-064A
CENTER_NAME    = EARTH
REF_FRAME      = TEME
TIME_SYSTEM    = UTC
MEAN_ELEMENT_THEORY = SGP/SGP4

EPOCH          = 2026-03-17T23:40:41.328480
MEAN_MOTION    = 14.87731339
ECCENTRICITY   = .00022836
INCLINATION    = 98.1688
RA_OF_ASC_NODE = 339.4735
ARG_OF_PERICENTER = 63.3103
MEAN_ANOMALY   = 296.8346

EPHEMERIS_TYPE = 0
CLASSIFICATION_TYPE = U
NORAD_CAT_ID   = 25977
ELEMENT_SET_NO = 999
REV_AT_EPOCH   = 68649
BSTAR          = .17135358E-3
MEAN_MOTION_DOT = .1504E-4
MEAN_MOTION_DDOT = 0

CCSDS_OMM_VERS = 2.0
CREATION_DATE  = 
ORIGINATOR     = 

OBJECT_NAME    = TERRA
OBJECT_ID      = 1999-068A
CENTER_NAME    = EARTH
REF_FRAME      = TEME
TIME_SYSTEM    = UTC
MEAN_ELEMENT_THEORY = SGP/SGP4

EPOCH          = 2026-03-18T06:38:35.706624
MEAN_MOTION    = 14.61023876
ECCENTRICITY   = .00032041
INCLINATION    = 97.9575
RA_OF_ASC_NODE = 130.3828
ARG_OF_PERICENTER = 132.8581
MEAN_ANOMALY   = 292.3535

EPHEMERIS_TYPE = 0
CLASSIFICATION_TYPE = U
NORAD_CAT_ID   = 25994
ELEMENT_SET_NO = 999
REV_AT_EPOCH   = 39633
BSTAR          = .89845345E-4
MEAN_MOTION_DOT = .396E-5
MEAN_MOTION_DDOT = 0

CCSDS_OMM_VERS = 2.0
CREATION_DATE  = 
ORIGINATOR     = 

OBJECT_NAME    = SL-16 R/B
OBJECT_ID      = 2000-006B
CENTER_NAME    = EARTH
REF_FRAME      = TEME
TIME_SYSTEM    = UTC
MEAN_ELEMENT_THEORY = SGP/SGP4

EPOCH          = 2026-03-18T06:41:18.042720
MEAN_MOTION    = 14.15823894
ECCENTRICITY   = .00162962
INCLINATION    = 71.0003
RA_OF_ASC_NODE = 79.7757
ARG_OF_PERICENTER = 176.8906
MEAN_ANOMALY   = 183.2322

EPHEMERIS_TYPE = 0
CLASSIFICATION_TYPE = U
NORAD_CAT_ID   = 26070
ELEMENT_SET_NO = 999
REV_AT_EPOCH   = 34977
BSTAR          = -.52334195E-4
MEAN_MOTION_DOT = -.151E-5
MEAN_MOTION_DDOT = 0

CCSDS_OMM_VERS = 2.0
CREATION_DATE  = 
ORIGINATOR     = 

OBJECT_NAME    = TITAN 4B R/B
OBJECT_ID      = 2000-047B
CENTER_NAME    = EARTH
REF_FRAME      = TEME
TIME_SYSTEM    = UTC
MEAN_ELEMENT_THEORY = SGP/SGP4

EPOCH          = 2026-03-18T05:50:44.340864
MEAN_MOTION    = 15.09646678
ECCENTRICITY   = .00389274
INCLINATION    = 67.9914
RA_OF_ASC_NODE = 16.4554
ARG_OF_PERICENTER = 25.2226
MEAN_ANOMALY   = 335.0812

EPHEMERIS_TYPE = 0
CLASSIFICATION_TYPE = U
NORAD_CAT_ID   = 26474
ELEMENT_SET_NO = 999
REV_AT_EPOCH   = 39420
BSTAR          = .22558836E-3
MEAN_MOTION_DOT = .3567E-4
MEAN_MOTION_DDOT = 0

CCSDS_OMM_VERS = 2.0
CREATION_DATE  = 
ORIGINATOR     = 

OBJECT_NAME    = ENVISAT
OBJECT_ID      = 2002-009A
CENTER_NAME    = EARTH
REF_FRAME      = TEME
TIME_SYSTEM    = UTC
MEAN_ELEMENT_THEORY = SGP/SGP4

EPOCH          = 2026-03-18T07:33:24.467328
MEAN_MOTION    = 14.39040042
ECCENTRICITY   = .00013048
INCLINATION    = 98.3743
RA_OF_ASC_NODE = 30.7075
ARG_OF_PERICENTER = 82.4766
MEAN_ANOMALY   = 37.9972

EPHEMERIS_TYPE = 0
CLASSIFICATION_TYPE = U
NORAD_CAT_ID   = 27386
ELEMENT_SET_NO = 999
REV_AT_EPOCH   = 26041
BSTAR          = .48034527E-4
MEAN_MOTION_DOT = .106E-5
MEAN_MOTION_DDOT = 0

CCSDS_OMM_VERS = 2.0
CREATION_DATE  = 
ORIGINATOR     = 

OBJECT_NAME    = IDEFIX & ARIANE 42P R/B
OBJECT_ID      = 2002-021B
CENTER_NAME    = EARTH
REF_FRAME      = TEME
TIME_SYSTEM    = UTC
MEAN_ELEMENT_THEORY = SGP/SGP4

EPOCH          = 2026-03-18T07:20:17.663136
MEAN_MOTION    = 14.31032071
ECCENTRICITY   = .00120737
INCLINATION    = 98.5880
RA_OF_ASC_NODE = 15.8095
ARG_OF_PERICENTER = 156.9215
MEAN_ANOMALY   = 203.2513

EPHEMERIS_TYPE = 0
CLASSIFICATION_TYPE = U
NORAD_CAT_ID   = 27422
ELEMENT_SET_NO = 999
REV_AT_EPOCH   = 24525
BSTAR          = .11210973E-3
MEAN_MOTION_DOT = .252E-5
MEAN_MOTION_DDOT = 0

